[{"OBJECT_NAME":"STARLINK-3235","OBJECT_ID":"2021-125AW","EPOCH":"2026-03-09T17:56:50.245728","MEAN_MOTION":15.08839601,"ECCENTRICITY":0.00011819,"INCLINATION":53.2163,"RA_OF_ASC_NODE":238.8203,"ARG_OF_PERICENTER":101.1932,"MEAN_ANOMALY":258.9193,"EPHEMERIS_TYPE":0,"CLASSIFICATION_TYPE":"U","NORAD_CAT_ID":50200,"ELEMENT_SET_NO":999,"REV_AT_EPOCH":23675,"BSTAR":2.536694e-6,"MEAN_MOTION_DOT":-2.47e-6,"MEAN_MOTION_DDOT":0},{"OBJECT_NAME":"COSMOS 2251 DEB","OBJECT_ID":"1993-036AUU","EPOCH":"2026-03-05T06:52:33.034944","MEAN_MOTION":15.00530799,"ECCENTRICITY":0.0084949,"INCLINATION":74.0317,"RA_OF_ASC_NODE":43.0245,"ARG_OF_PERICENTER":102.0037,"MEAN_ANOMALY":259.0688,"EPHEMERIS_TYPE":0,"CLASSIFICATION_TYPE":"U","NORAD_CAT_ID":35905,"ELEMENT_SET_NO":999,"REV_AT_EPOCH":89820,"BSTAR":0.00077707,"MEAN_MOTION_DOT":0.00010555,"MEAN_MOTION_DDOT":0}]
